{"type": "FeatureCollection", "features": [{"type": "Feature", "properties": {"norad_id": 24946, "name": "IRIDIUM 33", "group": "iridium-33-debris", "lat": 75.34740528376251, "lon": -130.56183600904103, "alt_km": 764.7744279501376, "timestamp": "2025-12-24T03:53:30.031654+00:00", "meta": {"OBJECT_NAME": "IRIDIUM 33", "OBJECT_ID": "1997-051C", "EPOCH": "2025-12-23T15:41:35.917152", "MEAN_MOTION": 14.35044477, "ECCENTRICITY": 0.0008328, "INCLINATION": 86.3859, "RA_OF_ASC_NODE": 63.6401, "ARG_OF_PERICENTER": 164.7579, "MEAN_ANOMALY": 195.387, "EPHEMERIS_TYPE": 0, "CLASSIFICATION_TYPE": "U", "NORAD_CAT_ID": 24946, "ELEMENT_SET_NO": 999, "REV_AT_EPOCH": 47991, "BSTAR": 0.00010256, "MEAN_MOTION_DOT": 3.12e-06, "MEAN_MOTION_DDOT": 0}, "tle": {"line1": "1 24946U 97051C   25357.65388793  .00000312  00000+0  10256-3 0  9990", "line2": "2 24946  86.3859  63.6401 0008328 164.7579 195.3870 14.35044477479918"}}, "geometry": {"type": "Point", "coordinates": [-130.56183600904103, 75.34740528376251]}}, {"type": "Feature", "properties": {"norad_id": 33773, "name": "IRIDIUM 33 DEB", "group": "iridium-33-debris", "lat": 38.771340828891695, "lon": 58.64742600526399, "alt_km": 742.2619931537956, "timestamp": "2025-12-24T03:53:30.031693+00:00", "meta": {"OBJECT_NAME": "IRIDIUM 33 DEB", "OBJECT_ID": "1997-051L", "EPOCH": "2025-12-23T04:25:01.162272", "MEAN_MOTION": 14.43278196, "ECCENTRICITY": 0.00132128, "INCLINATION": 86.3999, "RA_OF_ASC_NODE": 56.1634, "ARG_OF_PERICENTER": 116.3011, "MEAN_ANOMALY": 243.9549, "EPHEMERIS_TYPE": 0, "CLASSIFICATION_TYPE": "U", "NORAD_CAT_ID": 33773, "ELEMENT_SET_NO": 999, "REV_AT_EPOCH": 88498, "BSTAR": 0.00028262312, "MEAN_MOTION_DOT": 9.72e-06, "MEAN_MOTION_DDOT": 0}, "tle": {"line1": "1 33773U 97051L   25357.18404123  .00000972  00000+0  28262-3 0  9990", "line2": "2 33773  86.3999  56.1634 0013212 116.3011 243.9549 14.43278196884984"}}, "geometry": {"type": "Point", "coordinates": [58.64742600526399, 38.771340828891695]}}, {"type": "Feature", "properties": {"norad_id": 33775, "name": "IRIDIUM 33 DEB", "group": "iridium-33-debris", "lat": 48.80742035761263, "lon": 48.84468210455005, "alt_km": 745.7875570412152, "timestamp": "2025-12-24T03:53:30.031709+00:00", "meta": {"OBJECT_NAME": "IRIDIUM 33 DEB", "OBJECT_ID": "1997-051N", "EPOCH": "2025-12-23T13:17:41.921952", "MEAN_MOTION": 14.41490246, "ECCENTRICITY": 0.0015222, "INCLINATION": 86.3625, "RA_OF_ASC_NODE": 44.9362, "ARG_OF_PERICENTER": 122.4462, "MEAN_ANOMALY": 12.5884, "EPHEMERIS_TYPE": 0, "CLASSIFICATION_TYPE": "U", "NORAD_CAT_ID": 33775, "ELEMENT_SET_NO": 999, "REV_AT_EPOCH": 88296, "BSTAR": 0.00028606, "MEAN_MOTION_DOT": 9.49e-06, "MEAN_MOTION_DDOT": 0}, "tle": {"line1": "1 33775U 97051N   25357.55395743  .00000949  00000+0  28606-3 0  9996", "line2": "2 33775  86.3625  44.9362 0015222 122.4462  12.5884 14.41490246882964"}}, "geometry": {"type": "Point", "coordinates": [48.84468210455005, 48.80742035761263]}}, {"type": "Feature", "properties": {"norad_id": 33776, "name": "IRIDIUM 33 DEB", "group": "iridium-33-debris", "lat": 33.85351430403526, "lon": -106.4392773621684, "alt_km": 751.2010644184029, "timestamp": "2025-12-24T03:53:30.031722+00:00", "meta": {"OBJECT_NAME": "IRIDIUM 33 DEB", "OBJECT_ID": "1997-051P", "EPOCH": "2025-12-23T05:45:23.294880", "MEAN_MOTION": 14.38252689, "ECCENTRICITY": 0.00155515, "INCLINATION": 86.4031, "RA_OF_ASC_NODE": 76.3663, "ARG_OF_PERICENTER": 156.8521, "MEAN_ANOMALY": 256.7736, "EPHEMERIS_TYPE": 0, "CLASSIFICATION_TYPE": "U", "NORAD_CAT_ID": 33776, "ELEMENT_SET_NO": 999, "REV_AT_EPOCH": 88233, "BSTAR": 0.00025539679, "MEAN_MOTION_DOT": 7.97e-06, "MEAN_MOTION_DDOT": 0}, "tle": {"line1": "1 33776U 97051P   25357.23985295  .00000797  00000+0  25540-3 0  9994", "line2": "2 33776  86.4031  76.3663 0015551 156.8521 256.7736 14.38252689882334"}}, "geometry": {"type": "Point", "coordinates": [-106.4392773621684, 33.85351430403526]}}, {"type": "Feature", "properties": {"norad_id": 33777, "name": "IRIDIUM 33 DEB", "group": "iridium-33-debris", "lat": -71.16101542625861, "lon": 19.53229951260321, "alt_km": 714.3344937595157, "timestamp": "2025-12-24T03:53:30.031735+00:00", "meta": {"OBJECT_NAME": "IRIDIUM 33 DEB", "OBJECT_ID": "1997-051Q", "EPOCH": "2025-12-23T11:43:19.900128", "MEAN_MOTION": 14.55683855, "ECCENTRICITY": 0.000614, "INCLINATION": 86.3772, "RA_OF_ASC_NODE": 30.5269, "ARG_OF_PERICENTER": 203.1563, "MEAN_ANOMALY": 156.9369, "EPHEMERIS_TYPE": 0, "CLASSIFICATION_TYPE": "U", "NORAD_CAT_ID": 33777, "ELEMENT_SET_NO": 999, "REV_AT_EPOCH": 88690, "BSTAR": 0.00078837, "MEAN_MOTION_DOT": 3.465e-05, "MEAN_MOTION_DDOT": 0}, "tle": {"line1": "1 33777U 97051Q   25357.48842477  .00003465  00000+0  78837-3 0  9998", "line2": "2 33777  86.3772  30.5269 0006140 203.1563 156.9369 14.55683855886908"}}, "geometry": {"type": "Point", "coordinates": [19.53229951260321, -71.16101542625861]}}, {"type": "Feature", "properties": {"norad_id": 33850, "name": "IRIDIUM 33 DEB", "group": "iridium-33-debris", "lat": 57.582421265961656, "lon": 31.05107296988172, "alt_km": 742.5008454016834, "timestamp": "2025-12-24T03:53:30.031748+00:00", "meta": {"OBJECT_NAME": "IRIDIUM 33 DEB", "OBJECT_ID": "1997-051T", "EPOCH": "2025-12-23T19:53:00.126816", "MEAN_MOTION": 14.42172419, "ECCENTRICITY": 0.0013224, "INCLINATION": 86.3407, "RA_OF_ASC_NODE": 25.4109, "ARG_OF_PERICENTER": 128.0286, "MEAN_ANOMALY": 358.6367, "EPHEMERIS_TYPE": 0, "CLASSIFICATION_TYPE": "U", "NORAD_CAT_ID": 33850, "ELEMENT_SET_NO": 999, "REV_AT_EPOCH": 88312, "BSTAR": 0.0003662, "MEAN_MOTION_DOT": 1.226e-05, "MEAN_MOTION_DDOT": 0}, "tle": {"line1": "1 33850U 97051T   25357.82847369  .00001226  00000+0  36620-3 0  9990", "line2": "2 33850  86.3407  25.4109 0013224 128.0286 358.6367 14.42172419883124"}}, "geometry": {"type": "Point", "coordinates": [31.05107296988172, 57.582421265961656]}}, {"type": "Feature", "properties": {"norad_id": 33853, "name": "IRIDIUM 33 DEB", "group": "iridium-33-debris", "lat": 69.22489675208487, "lon": 154.1738682313399, "alt_km": 887.6937603841225, "timestamp": "2025-12-24T03:53:30.031761+00:00", "meta": {"OBJECT_NAME": "IRIDIUM 33 DEB", "OBJECT_ID": "1997-051W", "EPOCH": "2025-12-23T17:54:12.275424", "MEAN_MOTION": 13.99114833, "ECCENTRICITY": 0.020758, "INCLINATION": 86.0002, "RA_OF_ASC_NODE": 344.9842, "ARG_OF_PERICENTER": 201.8747, "MEAN_ANOMALY": 335.9357, "EPHEMERIS_TYPE": 0, "CLASSIFICATION_TYPE": "U", "NORAD_CAT_ID": 33853, "ELEMENT_SET_NO": 999, "REV_AT_EPOCH": 85499, "BSTAR": 0.0011056, "MEAN_MOTION_DOT": 1.943e-05, "MEAN_MOTION_DDOT": 0}, "tle": {"line1": "1 33853U 97051W   25357.74597541  .00001943  00000+0  11056-2 0  9999", "line2": "2 33853  86.0002 344.9842 0207580 201.8747 335.9357 13.99114833854997"}}, "geometry": {"type": "Point", "coordinates": [154.1738682313399, 69.22489675208487]}}, {"type": "Feature", "properties": {"norad_id": 33860, "name": "IRIDIUM 33 DEB", "group": "iridium-33-debris", "lat": -50.33601851462271, "lon": 17.8047024447696, "alt_km": 671.7437590461132, "timestamp": "2025-12-24T03:53:30.031773+00:00", "meta": {"OBJECT_NAME": "IRIDIUM 33 DEB", "OBJECT_ID": "1997-051AD", "EPOCH": "2025-12-23T12:19:45.141024", "MEAN_MOTION": 14.67490228, "ECCENTRICITY": 0.0006159, "INCLINATION": 86.3821, "RA_OF_ASC_NODE": 22.4681, "ARG_OF_PERICENTER": 315.746, "MEAN_ANOMALY": 170.4243, "EPHEMERIS_TYPE": 0, "CLASSIFICATION_TYPE": "U", "NORAD_CAT_ID": 33860, "ELEMENT_SET_NO": 999, "REV_AT_EPOCH": 88880, "BSTAR": 0.0011382, "MEAN_MOTION_DOT": 6.471e-05, "MEAN_MOTION_DDOT": 0}, "tle": {"line1": "1 33860U 97051AD  25357.51371691  .00006471  00000+0  11382-2 0  9991", "line2": "2 33860  86.3821  22.4681 0006159 315.7460 170.4243 14.67490228888806"}}, "geometry": {"type": "Point", "coordinates": [17.8047024447696, -50.33601851462271]}}, {"type": "Feature", "properties": {"norad_id": 33862, "name": "IRIDIUM 33 DEB", "group": "iridium-33-debris", "lat": 72.31457615397744, "lon": 43.85544182475144, "alt_km": 627.8322543943259, "timestamp": "2025-12-24T03:53:30.031785+00:00", "meta": {"OBJECT_NAME": "IRIDIUM 33 DEB", "OBJECT_ID": "1997-051AF", "EPOCH": "2025-12-23T01:32:54.489984", "MEAN_MOTION": 14.6963106, "ECCENTRICITY": 0.0052374, "INCLINATION": 86.4076, "RA_OF_ASC_NODE": 32.9766, "ARG_OF_PERICENTER": 34.4882, "MEAN_ANOMALY": 354.3477, "EPHEMERIS_TYPE": 0, "CLASSIFICATION_TYPE": "U", "NORAD_CAT_ID": 33862, "ELEMENT_SET_NO": 999, "REV_AT_EPOCH": 88975, "BSTAR": 0.0015854731, "MEAN_MOTION_DOT": 9.654e-05, "MEAN_MOTION_DDOT": 0}, "tle": {"line1": "1 33862U 97051AF  25357.06451956  .00009654  00000+0  15855-2 0  9991", "line2": "2 33862  86.4076  32.9766 0052374  34.4882 354.3477 14.69631060889754"}}, "geometry": {"type": "Point", "coordinates": [43.85544182475144, 72.31457615397744]}}, {"type": "Feature", "properties": {"norad_id": 33866, "name": "IRIDIUM 33 DEB", "group": "iridium-33-debris", "lat": 60.03762311610453, "lon": -98.24182849538911, "alt_km": 719.3496888214495, "timestamp": "2025-12-24T03:53:30.031796+00:00", "meta": {"OBJECT_NAME": "IRIDIUM 33 DEB", "OBJECT_ID": "1997-051AK", "EPOCH": "2025-12-23T14:10:53.283072", "MEAN_MOTION": 14.25306443, "ECCENTRICITY": 0.0115117, "INCLINATION": 86.2999, "RA_OF_ASC_NODE": 88.445, "ARG_OF_PERICENTER": 127.0066, "MEAN_ANOMALY": 303.4648, "EPHEMERIS_TYPE": 0, "CLASSIFICATION_TYPE": "U", "NORAD_CAT_ID": 33866, "ELEMENT_SET_NO": 999, "REV_AT_EPOCH": 86965, "BSTAR": 0.00052921, "MEAN_MOTION_DOT": 1.355e-05, "MEAN_MOTION_DDOT": 0}, "tle": {"line1": "1 33866U 97051AK  25357.59089448  .00001355  00000+0  52921-3 0  9992", "line2": "2 33866  86.2999  88.4450 0115117 127.0066 303.4648 14.25306443869652"}}, "geometry": {"type": "Point", "coordinates": [-98.24182849538911, 60.03762311610453]}}]}